{"fetched_at":"2026-07-16T17:46:05.603Z","source":"https://celestrak.org/NORAD/elements/gp.php?GROUP=oneweb&FORMAT=JSON","constellation":"oneweb","records":[{"OBJECT_NAME":"ONEWEB-0258","OBJECT_ID":"2021-060K","EPOCH":"2026-07-16T03:14:40.712352","CLASSIFICATION_TYPE":"U","MEAN_MOTION":13.16594151,"ECCENTRICITY":0.00021705,"INCLINATION":87.908,"RA_OF_ASC_NODE":223.0337,"ARG_OF_PERICENTER":96.5605,"MEAN_ANOMALY":263.5773,"EPHEMERIS_TYPE":0,"NORAD_CAT_ID":48976,"ELEMENT_SET_NO":999,"REV_AT_EPOCH":24340,"BSTAR":0.00006786442,"MEAN_MOTION_DOT":3.9e-7,"MEAN_MOTION_DDOT":0},{"OBJECT_NAME":"ONEWEB-0259","OBJECT_ID":"2021-060L","EPOCH":"2026-07-16T03:05:33.539424","CLASSIFICATION_TYPE":"U","MEAN_MOTION":13.16593841,"ECCENTRICITY":0.00022842,"INCLINATION":87.9078,"RA_OF_ASC_NODE":223.0332,"ARG_OF_PERICENTER":96.2249,"MEAN_ANOMALY":263.9142,"EPHEMERIS_TYPE":0,"NORAD_CAT_ID":48977,"ELEMENT_SET_NO":999,"REV_AT_EPOCH":24343,"BSTAR":0.000099863768,"MEAN_MOTION_DOT":5.1e-7,"MEAN_MOTION_DDOT":0},{"OBJECT_NAME":"ONEWEB-0260","OBJECT_ID":"2021-060M","EPOCH":"2026-07-16T02:52:59.401344","CLASSIFICATION_TYPE":"U","MEAN_MOTION":13.16595199,"ECCENTRICITY":0.00016803,"INCLINATION":87.9073,"RA_OF_ASC_NODE":223.0354,"ARG_OF_PERICENTER":94.2825,"MEAN_ANOMALY":265.8498,"EPHEMERIS_TYPE":0,"NORAD_CAT_ID":48978,"ELEMENT_SET_NO":999,"REV_AT_EPOCH":24341,"BSTAR":-0.00010111636,"MEAN_MOTION_DOT":-2.6e-7,"MEAN_MOTION_DDOT":0},{"OBJECT_NAME":"ONEWEB-0261","OBJECT_ID":"2021-060N","EPOCH":"2026-07-16T07:38:00.875616","CLASSIFICATION_TYPE":"U","MEAN_MOTION":13.16593898,"ECCENTRICITY":0.00020909,"INCLINATION":87.9079,"RA_OF_ASC_NODE":222.9967,"ARG_OF_PERICENTER":102.3137,"MEAN_ANOMALY":257.8228,"EPHEMERIS_TYPE":0,"NORAD_CAT_ID":48979,"ELEMENT_SET_NO":999,"REV_AT_EPOCH":24349,"BSTAR":-0.000061954461,"MEAN_MOTION_DOT":-1.1e-7,"MEAN_MOTION_DDOT":0},{"OBJECT_NAME":"ONEWEB-0262","OBJECT_ID":"2021-060P","EPOCH":"2026-07-16T01:41:12.094368","CLASSIFICATION_TYPE":"U","MEAN_MOTION":13.16594136,"ECCENTRICITY":0.0002348,"INCLINATION":87.908,"RA_OF_ASC_NODE":223.0326,"ARG_OF_PERICENTER":95.6104,"MEAN_ANOMALY":264.5295,"EPHEMERIS_TYPE":0,"NORAD_CAT_ID":48980,"ELEMENT_SET_NO":999,"REV_AT_EPOCH":24342,"BSTAR":0.00026147184,"MEAN_MOTION_DOT":0.00000113,"MEAN_MOTION_DDOT":0},{"OBJECT_NAME":"ONEWEB-0263","OBJECT_ID":"2021-060Q","EPOCH":"2026-07-16T02:26:47.818176","CLASSIFICATION_TYPE":"U","MEAN_MOTION":13.16593623,"ECCENTRICITY":0.00021975,"INCLINATION":87.908,"RA_OF_ASC_NODE":223.0382,"ARG_OF_PERICENTER":101.9001,"MEAN_ANOMALY":258.2377,"EPHEMERIS_TYPE":0,"NORAD_CAT_ID":48981,"ELEMENT_SET_NO":999,"REV_AT_EPOCH":24339,"BSTAR":-0.00012317037,"MEAN_MOTION_DOT":-3.4e-7,"MEAN_MOTION_DDOT":0},{"OBJECT_NAME":"ONEWEB-0264","OBJECT_ID":"2021-060R","EPOCH":"2026-07-16T03:20:21.544800","CLASSIFICATION_TYPE":"U","MEAN_MOTION":13.1659219,"ECCENTRICITY":0.00019379,"INCLINATION":87.9072,"RA_OF_ASC_NODE":223.0328,"ARG_OF_PERICENTER":98.018,"MEAN_ANOMALY":262.1171,"EPHEMERIS_TYPE":0,"NORAD_CAT_ID":48982,"ELEMENT_SET_NO":999,"REV_AT_EPOCH":24340,"BSTAR":0.000067466366,"MEAN_MOTION_DOT":3.9e-7,"MEAN_MOTION_DDOT":0},{"OBJECT_NAME":"ONEWEB-0266","OBJECT_ID":"2021-060T","EPOCH":"2026-07-16T03:51:08.248896","CLASSIFICATION_TYPE":"U","MEAN_MOTION":13.16595667,"ECCENTRICITY":0.00021175,"INCLINATION":87.9082,"RA_OF_ASC_NODE":223.0199,"ARG_OF_PERICENTER":91.2419,"MEAN_ANOMALY":268.8954,"EPHEMERIS_TYPE":0,"NORAD_CAT_ID":48984,"ELEMENT_SET_NO":999,"REV_AT_EPOCH":24339,"BSTAR":-0.000095128155,"MEAN_MOTION_DOT":-2.4e-7,"MEAN_MOTION_DDOT":0},{"OBJECT_NAME":"ONEWEB-0267","OBJECT_ID":"2021-060U","EPOCH":"2026-07-16T02:17:40.779168","CLASSIFICATION_TYPE":"U","MEAN_MOTION":13.16594118,"ECCENTRICITY":0.00020445,"INCLINATION":87.908,"RA_OF_ASC_NODE":223.0296,"ARG_OF_PERICENTER":98.8368,"MEAN_ANOMALY":261.2995,"EPHEMERIS_TYPE":0,"NORAD_CAT_ID":48985,"ELEMENT_SET_NO":999,"REV_AT_EPOCH":24339,"BSTAR":-0.00007032022,"MEAN_MOTION_DOT":-1.4e-7,"MEAN_MOTION_DDOT":0},{"OBJECT_NAME":"ONEWEB-0268","OBJECT_ID":"2021-060V","EPOCH":"2026-07-16T01:32:04.373664","CLASSIFICATION_TYPE":"U","MEAN_MOTION":13.16598631,"ECCENTRICITY":0.00019025,"INCLINATION":87.9078,"RA_OF_ASC_NODE":223.0453,"ARG_OF_PERICENTER":93.9446,"MEAN_ANOMALY":266.1902,"EPHEMERIS_TYPE":0,"NORAD_CAT_ID":48986,"ELEMENT_SET_NO":999,"REV_AT_EPOCH":24365,"BSTAR":0.0019271578,"MEAN_MOTION_DOT":0.0000075,"MEAN_MOTION_DDOT":0},{"OBJECT_NAME":"ONEWEB-0269","OBJECT_ID":"2021-060W","EPOCH":"2026-07-16T02:54:09.429408","CLASSIFICATION_TYPE":"U","MEAN_MOTION":13.16593986,"ECCENTRICITY":0.00019667,"INCLINATION":87.9073,"RA_OF_ASC_NODE":223.0346,"ARG_OF_PERICENTER":89.4087,"MEAN_ANOMALY":270.7269,"EPHEMERIS_TYPE":0,"NORAD_CAT_ID":48987,"ELEMENT_SET_NO":999,"REV_AT_EPOCH":24343,"BSTAR":0.000023322821,"MEAN_MOTION_DOT":2.2e-7,"MEAN_MOTION_DDOT":0},{"OBJECT_NAME":"ONEWEB-0270","OBJECT_ID":"2021-060X","EPOCH":"2026-07-16T01:29:46.188096","CLASSIFICATION_TYPE":"U","MEAN_MOTION":13.16598768,"ECCENTRICITY":0.00022946,"INCLINATION":87.9084,"RA_OF_ASC_NODE":223.0478,"ARG_OF_PERICENTER":100.2105,"MEAN_ANOMALY":259.9284,"EPHEMERIS_TYPE":0,"NORAD_CAT_ID":48988,"ELEMENT_SET_NO":999,"REV_AT_EPOCH":24346,"BSTAR":-0.0032148648,"MEAN_MOTION_DOT":-0.00001216,"MEAN_MOTION_DDOT":0},{"OBJECT_NAME":"ONEWEB-0271","OBJECT_ID":"2021-060Y","EPOCH":"2026-07-16T03:01:00.035904","CLASSIFICATION_TYPE":"U","MEAN_MOTION":13.16593851,"ECCENTRICITY":0.00021362,"INCLINATION":87.9077,"RA_OF_ASC_NODE":223.0245,"ARG_OF_PERICENTER":100.4054,"MEAN_ANOMALY":259.7318,"EPHEMERIS_TYPE":0,"NORAD_CAT_ID":48989,"ELEMENT_SET_NO":999,"REV_AT_EPOCH":24347,"BSTAR":-0.00014431257,"MEAN_MOTION_DOT":-4.2e-7,"MEAN_MOTION_DDOT":0},{"OBJECT_NAME":"ONEWEB-0272","OBJECT_ID":"2021-060Z","EPOCH":"2026-07-16T03:32:54.494880","CLASSIFICATION_TYPE":"U","MEAN_MOTION":13.16595318,"ECCENTRICITY":0.00018242,"INCLINATION":87.9073,"RA_OF_ASC_NODE":223.0306,"ARG_OF_PERICENTER":98.8586,"MEAN_ANOMALY":261.2751,"EPHEMERIS_TYPE":0,"NORAD_CAT_ID":48990,"ELEMENT_SET_NO":999,"REV_AT_EPOCH":24342,"BSTAR":0.000072211957,"MEAN_MOTION_DOT":4e-7,"MEAN_MOTION_DDOT":0},{"OBJECT_NAME":"ONEWEB-0273","OBJECT_ID":"2021-060AA","EPOCH":"2026-07-16T07:43:42.177216","CLASSIFICATION_TYPE":"U","MEAN_MOTION":13.16591493,"ECCENTRICITY":0.00021768,"INCLINATION":87.9077,"RA_OF_ASC_NODE":222.9971,"ARG_OF_PERICENTER":96.8601,"MEAN_ANOMALY":263.2778,"EPHEMERIS_TYPE":0,"NORAD_CAT_ID":48991,"ELEMENT_SET_NO":999,"REV_AT_EPOCH":24342,"BSTAR":0.0013349973,"MEAN_MOTION_DOT":0.00000523,"MEAN_MOTION_DDOT":0},{"OBJECT_NAME":"ONEWEB-0274","OBJECT_ID":"2021-060AB","EPOCH":"2026-07-16T02:51:51.401952","CLASSIFICATION_TYPE":"U","MEAN_MOTION":13.16595451,"ECCENTRICITY":0.00017559,"INCLINATION":87.9068,"RA_OF_ASC_NODE":223.0369,"ARG_OF_PERICENTER":95.1259,"MEAN_ANOMALY":265.0072,"EPHEMERIS_TYPE":0,"NORAD_CAT_ID":48992,"ELEMENT_SET_NO":999,"REV_AT_EPOCH":24343,"BSTAR":0.0001479401,"MEAN_MOTION_DOT":6.9e-7,"MEAN_MOTION_DDOT":0}]}
